CCSDS_OMM_VERS = 2.0
CREATION_DATE  = 
ORIGINATOR     = 

OBJECT_NAME    = STARLINK-36446
OBJECT_ID      = 2026-005J
CENTER_NAME    = EARTH
REF_FRAME      = TEME
TIME_SYSTEM    = UTC
MEAN_ELEMENT_THEORY = SGP/SGP4

EPOCH          = 2026-01-31T22:00:03.000096
MEAN_MOTION    = 15.53450572
ECCENTRICITY   = .00007503
INCLINATION    = 43.0007
RA_OF_ASC_NODE = 89.3235
ARG_OF_PERICENTER = 285.8184
MEAN_ANOMALY   = 313.8085

EPHEMERIS_TYPE = 0
CLASSIFICATION_TYPE = U
NORAD_CAT_ID   = 67412
ELEMENT_SET_NO = 999
REV_AT_EPOCH   = 427
BSTAR          = -.30888583E-1
MEAN_MOTION_DOT = -.1785694E-1
MEAN_MOTION_DDOT = 0

CCSDS_OMM_VERS = 2.0
CREATION_DATE  = 
ORIGINATOR     = 

OBJECT_NAME    = STARLINK-36442
OBJECT_ID      = 2026-005K
CENTER_NAME    = EARTH
REF_FRAME      = TEME
TIME_SYSTEM    = UTC
MEAN_ELEMENT_THEORY = SGP/SGP4

EPOCH          = 2026-01-31T22:00:03.000096
MEAN_MOTION    = 15.53452896
ECCENTRICITY   = .00006972
INCLINATION    = 43.0007
RA_OF_ASC_NODE = 89.3176
ARG_OF_PERICENTER = 288.3093
MEAN_ANOMALY   = 313.2334

EPHEMERIS_TYPE = 0
CLASSIFICATION_TYPE = U
NORAD_CAT_ID   = 67413
ELEMENT_SET_NO = 999
REV_AT_EPOCH   = 427
BSTAR          = -.30967505E-1
MEAN_MOTION_DOT = -.1789856E-1
MEAN_MOTION_DDOT = 0

CCSDS_OMM_VERS = 2.0
CREATION_DATE  = 
ORIGINATOR     = 

OBJECT_NAME    = STARLINK-36506
OBJECT_ID      = 2026-005L
CENTER_NAME    = EARTH
REF_FRAME      = TEME
TIME_SYSTEM    = UTC
MEAN_ELEMENT_THEORY = SGP/SGP4

EPOCH          = 2026-01-31T22:00:03.000096
MEAN_MOTION    = 15.53453870
ECCENTRICITY   = .00006722
INCLINATION    = 43.0009
RA_OF_ASC_NODE = 89.3132
ARG_OF_PERICENTER = 286.4083
MEAN_ANOMALY   = 317.0520

EPHEMERIS_TYPE = 0
CLASSIFICATION_TYPE = U
NORAD_CAT_ID   = 67414
ELEMENT_SET_NO = 999
REV_AT_EPOCH   = 427
BSTAR          = -.31009131E-1
MEAN_MOTION_DOT = -.1792037E-1
MEAN_MOTION_DDOT = 0

CCSDS_OMM_VERS = 2.0
CREATION_DATE  = 
ORIGINATOR     = 

OBJECT_NAME    = STARLINK-36468
OBJECT_ID      = 2026-005M
CENTER_NAME    = EARTH
REF_FRAME      = TEME
TIME_SYSTEM    = UTC
MEAN_ELEMENT_THEORY = SGP/SGP4

EPOCH          = 2026-01-31T22:00:03.000096
MEAN_MOTION    = 15.53452765
ECCENTRICITY   = .00007284
INCLINATION    = 43.0008
RA_OF_ASC_NODE = 89.3089
ARG_OF_PERICENTER = 292.6764
MEAN_ANOMALY   = 312.7000

EPHEMERIS_TYPE = 0
CLASSIFICATION_TYPE = U
NORAD_CAT_ID   = 67415
ELEMENT_SET_NO = 999
REV_AT_EPOCH   = 422
BSTAR          = -.30983091E-1
MEAN_MOTION_DOT = -.1790664E-1
MEAN_MOTION_DDOT = 0

CCSDS_OMM_VERS = 2.0
CREATION_DATE  = 
ORIGINATOR     = 

OBJECT_NAME    = STARLINK-36487
OBJECT_ID      = 2026-005N
CENTER_NAME    = EARTH
REF_FRAME      = TEME
TIME_SYSTEM    = UTC
MEAN_ELEMENT_THEORY = SGP/SGP4

EPOCH          = 2026-01-31T22:00:03.000096
MEAN_MOTION    = 15.53450616
ECCENTRICITY   = .00007166
INCLINATION    = 43.0009
RA_OF_ASC_NODE = 89.3038
ARG_OF_PERICENTER = 281.4370
MEAN_ANOMALY   = 325.8596

EPHEMERIS_TYPE = 0
CLASSIFICATION_TYPE = U
NORAD_CAT_ID   = 67416
ELEMENT_SET_NO = 999
REV_AT_EPOCH   = 427
BSTAR          = -.30942266E-1
MEAN_MOTION_DOT = -.1788436E-1
MEAN_MOTION_DDOT = 0

CCSDS_OMM_VERS = 2.0
CREATION_DATE  = 
ORIGINATOR     = 

OBJECT_NAME    = STARLINK-36374
OBJECT_ID      = 2026-005P
CENTER_NAME    = EARTH
REF_FRAME      = TEME
TIME_SYSTEM    = UTC
MEAN_ELEMENT_THEORY = SGP/SGP4

EPOCH          = 2026-01-31T22:00:03.000096
MEAN_MOTION    = 15.53420519
ECCENTRICITY   = .00011007
INCLINATION    = 43.0011
RA_OF_ASC_NODE = 89.2989
ARG_OF_PERICENTER = 289.6614
MEAN_ANOMALY   = 319.5529

EPHEMERIS_TYPE = 0
CLASSIFICATION_TYPE = U
NORAD_CAT_ID   = 67417
ELEMENT_SET_NO = 999
REV_AT_EPOCH   = 427
BSTAR          = -.2915922E-1
MEAN_MOTION_DOT = -.1694748E-1
MEAN_MOTION_DDOT = 0

CCSDS_OMM_VERS = 2.0
CREATION_DATE  = 
ORIGINATOR     = 

OBJECT_NAME    = STARLINK-36455
OBJECT_ID      = 2026-005Q
CENTER_NAME    = EARTH
REF_FRAME      = TEME
TIME_SYSTEM    = UTC
MEAN_ELEMENT_THEORY = SGP/SGP4

EPOCH          = 2026-01-31T22:00:03.000096
MEAN_MOTION    = 15.53419890
ECCENTRICITY   = .00010985
INCLINATION    = 43.0013
RA_OF_ASC_NODE = 89.2939
ARG_OF_PERICENTER = 285.1726
MEAN_ANOMALY   = 325.9605

EPHEMERIS_TYPE = 0
CLASSIFICATION_TYPE = U
NORAD_CAT_ID   = 67418
ELEMENT_SET_NO = 999
REV_AT_EPOCH   = 427
BSTAR          = -.29153229E-1
MEAN_MOTION_DOT = -.16944E-1
MEAN_MOTION_DDOT = 0

CCSDS_OMM_VERS = 2.0
CREATION_DATE  = 
ORIGINATOR     = 

OBJECT_NAME    = STARLINK-36424
OBJECT_ID      = 2026-005R
CENTER_NAME    = EARTH
REF_FRAME      = TEME
TIME_SYSTEM    = UTC
MEAN_ELEMENT_THEORY = SGP/SGP4

EPOCH          = 2026-01-31T22:00:03.000096
MEAN_MOTION    = 15.53452468
ECCENTRICITY   = .00007084
INCLINATION    = 43.0009
RA_OF_ASC_NODE = 89.2892
ARG_OF_PERICENTER = 286.9731
MEAN_ANOMALY   = 326.0719

EPHEMERIS_TYPE = 0
CLASSIFICATION_TYPE = U
NORAD_CAT_ID   = 67419
ELEMENT_SET_NO = 999
REV_AT_EPOCH   = 427
BSTAR          = -.30940091E-1
MEAN_MOTION_DOT = -.1788428E-1
MEAN_MOTION_DDOT = 0

CCSDS_OMM_VERS = 2.0
CREATION_DATE  = 
ORIGINATOR     = 

OBJECT_NAME    = STARLINK-35564
OBJECT_ID      = 2026-005S
CENTER_NAME    = EARTH
REF_FRAME      = TEME
TIME_SYSTEM    = UTC
MEAN_ELEMENT_THEORY = SGP/SGP4

EPOCH          = 2026-01-31T22:00:03.000096
MEAN_MOTION    = 15.53420575
ECCENTRICITY   = .00011424
INCLINATION    = 43.0010
RA_OF_ASC_NODE = 89.2844
ARG_OF_PERICENTER = 284.9150
MEAN_ANOMALY   = 330.0525

EPHEMERIS_TYPE = 0
CLASSIFICATION_TYPE = U
NORAD_CAT_ID   = 67420
ELEMENT_SET_NO = 999
REV_AT_EPOCH   = 416
BSTAR          = -.29253996E-1
MEAN_MOTION_DOT = -.16997E-1
MEAN_MOTION_DDOT = 0

CCSDS_OMM_VERS = 2.0
CREATION_DATE  = 
ORIGINATOR     = 

OBJECT_NAME    = STARLINK-36431
OBJECT_ID      = 2026-005T
CENTER_NAME    = EARTH
REF_FRAME      = TEME
TIME_SYSTEM    = UTC
MEAN_ELEMENT_THEORY = SGP/SGP4

EPOCH          = 2026-01-31T22:00:03.000096
MEAN_MOTION    = 15.53421172
ECCENTRICITY   = .00008612
INCLINATION    = 43.0008
RA_OF_ASC_NODE = 89.2799
ARG_OF_PERICENTER = 286.7286
MEAN_ANOMALY   = 330.1572

EPHEMERIS_TYPE = 0
CLASSIFICATION_TYPE = U
NORAD_CAT_ID   = 67421
ELEMENT_SET_NO = 999
REV_AT_EPOCH   = 406
BSTAR          = -.29453723E-1
MEAN_MOTION_DOT = -.1709973E-1
MEAN_MOTION_DDOT = 0

CCSDS_OMM_VERS = 2.0
CREATION_DATE  = 
ORIGINATOR     = 

OBJECT_NAME    = STARLINK-36418
OBJECT_ID      = 2026-005U
CENTER_NAME    = EARTH
REF_FRAME      = TEME
TIME_SYSTEM    = UTC
MEAN_ELEMENT_THEORY = SGP/SGP4

EPOCH          = 2026-01-31T22:00:03.000096
MEAN_MOTION    = 15.53449359
ECCENTRICITY   = .0000704
INCLINATION    = 43.0010
RA_OF_ASC_NODE = 89.2752
ARG_OF_PERICENTER = 286.2084
MEAN_ANOMALY   = 332.5893

EPHEMERIS_TYPE = 0
CLASSIFICATION_TYPE = U
NORAD_CAT_ID   = 67422
ELEMENT_SET_NO = 999
REV_AT_EPOCH   = 422
BSTAR          = -.30862283E-1
MEAN_MOTION_DOT = -.1784248E-1
MEAN_MOTION_DDOT = 0

CCSDS_OMM_VERS = 2.0
CREATION_DATE  = 
ORIGINATOR     = 

OBJECT_NAME    = STARLINK-36465
OBJECT_ID      = 2026-005V
CENTER_NAME    = EARTH
REF_FRAME      = TEME
TIME_SYSTEM    = UTC
MEAN_ELEMENT_THEORY = SGP/SGP4

EPOCH          = 2026-01-31T22:00:03.000096
MEAN_MOTION    = 15.53426524
ECCENTRICITY   = .00008722
INCLINATION    = 43.0011
RA_OF_ASC_NODE = 89.2702
ARG_OF_PERICENTER = 287.8462
MEAN_ANOMALY   = 332.8704

EPHEMERIS_TYPE = 0
CLASSIFICATION_TYPE = U
NORAD_CAT_ID   = 67423
ELEMENT_SET_NO = 999
REV_AT_EPOCH   = 401
BSTAR          = -.29607918E-1
MEAN_MOTION_DOT = -.1718278E-1
MEAN_MOTION_DDOT = 0

