STARLINK-36446          
1 67412U 26005J   26031.91670139 -.01785694  00000+0 -30889-1 0  9991
2 67412  43.0007  89.3235 0000750 285.8184 313.8085 15.53450572  4272
STARLINK-36442          
1 67413U 26005K   26031.91670139 -.01789856  00000+0 -30968-1 0  9994
2 67413  43.0007  89.3176 0000697 288.3093 313.2334 15.53452896  4276
STARLINK-36506          
1 67414U 26005L   26031.91670139 -.01792037  00000+0 -31009-1 0  9997
2 67414  43.0009  89.3132 0000672 286.4083 317.0520 15.53453870  4274
STARLINK-36468          
1 67415U 26005M   26031.91670139 -.01790664  00000+0 -30983-1 0  9992
2 67415  43.0008  89.3089 0000728 292.6764 312.7000 15.53452765  4224
STARLINK-36487          
1 67416U 26005N   26031.91670139 -.01788436  00000+0 -30942-1 0  9992
2 67416  43.0009  89.3038 0000716 281.4370 325.8596 15.53450616  4279
STARLINK-36374          
1 67417U 26005P   26031.91670139 -.01694748  00000+0 -29159-1 0  9993
2 67417  43.0011  89.2989 0001100 289.6614 319.5529 15.53420519  4271
STARLINK-36455          
1 67418U 26005Q   26031.91670139 -.01694400  00000+0 -29153-1 0  9993
2 67418  43.0013  89.2939 0001098 285.1726 325.9605 15.53419890  4276
STARLINK-36424          
1 67419U 26005R   26031.91670139 -.01788428  00000+0 -30940-1 0  9994
2 67419  43.0009  89.2892 0000708 286.9731 326.0719 15.53452468  4278
STARLINK-35564          
1 67420U 26005S   26031.91670139 -.01699700  00000+0 -29254-1 0  9996
2 67420  43.0010  89.2844 0001142 284.9150 330.0525 15.53420575  4167
STARLINK-36431          
1 67421U 26005T   26031.91670139 -.01709973  00000+0 -29454-1 0  9993
2 67421  43.0008  89.2799 0000861 286.7286 330.1572 15.53421172  4067
STARLINK-36418          
1 67422U 26005U   26031.91670139 -.01784248  00000+0 -30862-1 0  9997
2 67422  43.0010  89.2752 0000704 286.2084 332.5893 15.53449359  4224
STARLINK-36465          
1 67423U 26005V   26031.91670139 -.01718278  00000+0 -29608-1 0  9994
2 67423  43.0011  89.2702 0000872 287.8462 332.8704 15.53426524  4014
